CCSDS_OMM_VERS = 2.0
CREATION_DATE  = 
ORIGINATOR     = 

OBJECT_NAME    = SL-3 R/B
OBJECT_ID      = 1982-079B
CENTER_NAME    = EARTH
REF_FRAME      = TEME
TIME_SYSTEM    = UTC
MEAN_ELEMENT_THEORY = SGP/SGP4

EPOCH          = 2026-01-03T14:44:42.743040
MEAN_MOTION    = 15.23901023
ECCENTRICITY   = .00262639
INCLINATION    = 81.1476
RA_OF_ASC_NODE = 269.8727
ARG_OF_PERICENTER = 28.7680
MEAN_ANOMALY   = 331.4995

EPHEMERIS_TYPE = 0
CLASSIFICATION_TYPE = U
NORAD_CAT_ID   = 13403
ELEMENT_SET_NO = 999
REV_AT_EPOCH   = 36778
BSTAR          = .40994734E-3
MEAN_MOTION_DOT = .10024E-3
MEAN_MOTION_DDOT = 0

CCSDS_OMM_VERS = 2.0
CREATION_DATE  = 
ORIGINATOR     = 

OBJECT_NAME    = SL-14 R/B
OBJECT_ID      = 1982-092B
CENTER_NAME    = EARTH
REF_FRAME      = TEME
TIME_SYSTEM    = UTC
MEAN_ELEMENT_THEORY = SGP/SGP4

EPOCH          = 2026-01-03T14:58:53.052096
MEAN_MOTION    = 14.86581839
ECCENTRICITY   = .0020958
INCLINATION    = 82.5668
RA_OF_ASC_NODE = 202.2440
ARG_OF_PERICENTER = 153.3743
MEAN_ANOMALY   = 269.6998

EPHEMERIS_TYPE = 0
CLASSIFICATION_TYPE = U
NORAD_CAT_ID   = 13553
ELEMENT_SET_NO = 999
REV_AT_EPOCH   = 31926
BSTAR          = .98713198E-4
MEAN_MOTION_DOT = .903E-5
MEAN_MOTION_DDOT = 0

CCSDS_OMM_VERS = 2.0
CREATION_DATE  = 
ORIGINATOR     = 

OBJECT_NAME    = SL-3 R/B
OBJECT_ID      = 1983-010B
CENTER_NAME    = EARTH
REF_FRAME      = TEME
TIME_SYSTEM    = UTC
MEAN_ELEMENT_THEORY = SGP/SGP4

EPOCH          = 2026-01-03T14:46:05.209248
MEAN_MOTION    = 15.44168500
ECCENTRICITY   = .00162487
INCLINATION    = 81.1046
RA_OF_ASC_NODE = 81.9048
ARG_OF_PERICENTER = 273.0085
MEAN_ANOMALY   = 86.9299

EPHEMERIS_TYPE = 0
CLASSIFICATION_TYPE = U
NORAD_CAT_ID   = 13819
ELEMENT_SET_NO = 999
REV_AT_EPOCH   = 34789
BSTAR          = .44451979E-3
MEAN_MOTION_DOT = .20525E-3
MEAN_MOTION_DDOT = 0

CCSDS_OMM_VERS = 2.0
CREATION_DATE  = 
ORIGINATOR     = 

OBJECT_NAME    = SL-3 R/B
OBJECT_ID      = 1983-075B
CENTER_NAME    = EARTH
REF_FRAME      = TEME
TIME_SYSTEM    = UTC
MEAN_ELEMENT_THEORY = SGP/SGP4

EPOCH          = 2026-01-03T14:32:43.058688
MEAN_MOTION    = 15.36670470
ECCENTRICITY   = .0024507
INCLINATION    = 97.6102
RA_OF_ASC_NODE = 5.8312
ARG_OF_PERICENTER = 101.4487
MEAN_ANOMALY   = 258.9511

EPHEMERIS_TYPE = 0
CLASSIFICATION_TYPE = U
NORAD_CAT_ID   = 14208
ELEMENT_SET_NO = 999
REV_AT_EPOCH   = 32015
BSTAR          = .45681049E-3
MEAN_MOTION_DOT = .16453E-3
MEAN_MOTION_DDOT = 0

CCSDS_OMM_VERS = 2.0
CREATION_DATE  = 
ORIGINATOR     = 

OBJECT_NAME    = COSMOS 1536
OBJECT_ID      = 1984-013A
CENTER_NAME    = EARTH
REF_FRAME      = TEME
TIME_SYSTEM    = UTC
MEAN_ELEMENT_THEORY = SGP/SGP4

EPOCH          = 2026-01-03T13:24:26.464032
MEAN_MOTION    = 15.22848075
ECCENTRICITY   = .00151146
INCLINATION    = 82.5445
RA_OF_ASC_NODE = 172.5214
ARG_OF_PERICENTER = 147.4417
MEAN_ANOMALY   = 212.7755

EPHEMERIS_TYPE = 0
CLASSIFICATION_TYPE = U
NORAD_CAT_ID   = 14699
ELEMENT_SET_NO = 999
REV_AT_EPOCH   = 26270
BSTAR          = .48850797E-3
MEAN_MOTION_DOT = .11505E-3
MEAN_MOTION_DDOT = 0

CCSDS_OMM_VERS = 2.0
CREATION_DATE  = 
ORIGINATOR     = 

OBJECT_NAME    = SL-14 R/B
OBJECT_ID      = 1984-027B
CENTER_NAME    = EARTH
REF_FRAME      = TEME
TIME_SYSTEM    = UTC
MEAN_ELEMENT_THEORY = SGP/SGP4

EPOCH          = 2026-01-03T13:49:47.591328
MEAN_MOTION    = 14.85903146
ECCENTRICITY   = .00177275
INCLINATION    = 82.5429
RA_OF_ASC_NODE = 306.0793
ARG_OF_PERICENTER = 184.2555
MEAN_ANOMALY   = 175.8514

EPHEMERIS_TYPE = 0
CLASSIFICATION_TYPE = U
NORAD_CAT_ID   = 14820
ELEMENT_SET_NO = 999
REV_AT_EPOCH   = 23796
BSTAR          = .10079035E-3
MEAN_MOTION_DOT = .905E-5
MEAN_MOTION_DDOT = 0

CCSDS_OMM_VERS = 2.0
CREATION_DATE  = 
ORIGINATOR     = 

OBJECT_NAME    = SL-8 R/B
OBJECT_ID      = 1985-006B
CENTER_NAME    = EARTH
REF_FRAME      = TEME
TIME_SYSTEM    = UTC
MEAN_ELEMENT_THEORY = SGP/SGP4

EPOCH          = 2026-01-03T12:59:58.739712
MEAN_MOTION    = 14.37738078
ECCENTRICITY   = .00195878
INCLINATION    = 74.0459
RA_OF_ASC_NODE = 21.0208
ARG_OF_PERICENTER = 309.2209
MEAN_ANOMALY   = 169.1586

EPHEMERIS_TYPE = 0
CLASSIFICATION_TYPE = U
NORAD_CAT_ID   = 15483
ELEMENT_SET_NO = 999
REV_AT_EPOCH   = 14466
BSTAR          = .18470724E-3
MEAN_MOTION_DOT = .531E-5
MEAN_MOTION_DDOT = 0

CCSDS_OMM_VERS = 2.0
CREATION_DATE  = 
ORIGINATOR     = 

OBJECT_NAME    = SL-12 R/B(2)
OBJECT_ID      = 1985-042D
CENTER_NAME    = EARTH
REF_FRAME      = TEME
TIME_SYSTEM    = UTC
MEAN_ELEMENT_THEORY = SGP/SGP4

EPOCH          = 2026-01-03T14:59:13.259328
MEAN_MOTION    = 14.21959268
ECCENTRICITY   = .00369789
INCLINATION    = 71.1067
RA_OF_ASC_NODE = 225.1874
ARG_OF_PERICENTER = 229.2492
MEAN_ANOMALY   = 194.9107

EPHEMERIS_TYPE = 0
CLASSIFICATION_TYPE = U
NORAD_CAT_ID   = 15772
ELEMENT_SET_NO = 999
REV_AT_EPOCH   = 10514
BSTAR          = .7059519E-4
MEAN_MOTION_DOT = .109E-5
MEAN_MOTION_DDOT = 0

CCSDS_OMM_VERS = 2.0
CREATION_DATE  = 
ORIGINATOR     = 

OBJECT_NAME    = SL-14 R/B
OBJECT_ID      = 1985-069B
CENTER_NAME    = EARTH
REF_FRAME      = TEME
TIME_SYSTEM    = UTC
MEAN_ELEMENT_THEORY = SGP/SGP4

EPOCH          = 2026-01-03T15:33:21.248640
MEAN_MOTION    = 14.86354082
ECCENTRICITY   = .00199425
INCLINATION    = 82.5270
RA_OF_ASC_NODE = 86.1070
ARG_OF_PERICENTER = 50.9965
MEAN_ANOMALY   = 309.3024

EPHEMERIS_TYPE = 0
CLASSIFICATION_TYPE = U
NORAD_CAT_ID   = 15945
ELEMENT_SET_NO = 999
REV_AT_EPOCH   = 16317
BSTAR          = .9577894E-4
MEAN_MOTION_DOT = .871E-5
MEAN_MOTION_DDOT = 0

CCSDS_OMM_VERS = 2.0
CREATION_DATE  = 
ORIGINATOR     = 

OBJECT_NAME    = SL-16 R/B
OBJECT_ID      = 1985-097B
CENTER_NAME    = EARTH
REF_FRAME      = TEME
TIME_SYSTEM    = UTC
MEAN_ELEMENT_THEORY = SGP/SGP4

EPOCH          = 2026-01-03T11:30:51.962112
MEAN_MOTION    = 14.16587636
ECCENTRICITY   = .00080054
INCLINATION    = 71.0031
RA_OF_ASC_NODE = 277.8357
ARG_OF_PERICENTER = 338.7117
MEAN_ANOMALY   = 194.4217

EPHEMERIS_TYPE = 0
CLASSIFICATION_TYPE = U
NORAD_CAT_ID   = 16182
ELEMENT_SET_NO = 999
REV_AT_EPOCH   = 7799
BSTAR          = .13377158E-3
MEAN_MOTION_DOT = .219E-5
MEAN_MOTION_DDOT = 0

CCSDS_OMM_VERS = 2.0
CREATION_DATE  = 
ORIGINATOR     = 

OBJECT_NAME    = SL-14 R/B
OBJECT_ID      = 1986-006B
CENTER_NAME    = EARTH
REF_FRAME      = TEME
TIME_SYSTEM    = UTC
MEAN_ELEMENT_THEORY = SGP/SGP4

EPOCH          = 2026-01-03T08:56:19.844160
MEAN_MOTION    = 14.86705671
ECCENTRICITY   = .00778889
INCLINATION    = 82.5280
RA_OF_ASC_NODE = 321.1969
ARG_OF_PERICENTER = 128.4612
MEAN_ANOMALY   = 232.3629

EPHEMERIS_TYPE = 0
CLASSIFICATION_TYPE = U
NORAD_CAT_ID   = 16496
ELEMENT_SET_NO = 999
REV_AT_EPOCH   = 13950
BSTAR          = .12438067E-3
MEAN_MOTION_DOT = .1196E-4
MEAN_MOTION_DDOT = 0

CCSDS_OMM_VERS = 2.0
CREATION_DATE  = 
ORIGINATOR     = 

OBJECT_NAME    = COSMOS 1743
OBJECT_ID      = 1986-034A
CENTER_NAME    = EARTH
REF_FRAME      = TEME
TIME_SYSTEM    = UTC
MEAN_ELEMENT_THEORY = SGP/SGP4

EPOCH          = 2026-01-03T15:05:51.462240
MEAN_MOTION    = 15.53643989
ECCENTRICITY   = .00050202
INCLINATION    = 82.5355
RA_OF_ASC_NODE = 141.8336
ARG_OF_PERICENTER = 167.2604
MEAN_ANOMALY   = 192.8777

EPHEMERIS_TYPE = 0
CLASSIFICATION_TYPE = U
NORAD_CAT_ID   = 16719
ELEMENT_SET_NO = 999
REV_AT_EPOCH   = 17013
BSTAR          = .70345151E-3
MEAN_MOTION_DOT = .45111E-3
MEAN_MOTION_DDOT = 0

