SL-3 R/B                
1 13403U 82079B   26003.61438360  .00010024  00000+0  40995-3 0  9995
2 13403  81.1476 269.8727 0026263  28.7680 331.4995 15.23901023367782
SL-14 R/B               
1 13553U 82092B   26003.62422514  .00000903  00000+0  98713-4 0  9998
2 13553  82.5668 202.2440 0020958 153.3743 269.6998 14.86581839319261
SL-3 R/B                
1 13819U 83010B   26003.61533807  .00020525  00000+0  44452-3 0  9993
2 13819  81.1046  81.9048 0016248 273.0085  86.9299 15.44168500347898
SL-3 R/B                
1 14208U 83075B   26003.60605392  .00016453  00000+0  45681-3 0  9995
2 14208  97.6102   5.8312 0024507 101.4487 258.9511 15.36670470320155
COSMOS 1536             
1 14699U 84013A   26003.55863963  .00011505  00000+0  48851-3 0  9991
2 14699  82.5445 172.5214 0015114 147.4417 212.7755 15.22848075262709
SL-14 R/B               
1 14820U 84027B   26003.57624527  .00000905  00000+0  10079-3 0  9998
2 14820  82.5429 306.0793 0017727 184.2555 175.8514 14.85903146237968
SL-8 R/B                
1 15483U 85006B   26003.54165208  .00000531  00000+0  18471-3 0  9994
2 15483  74.0459  21.0208 0019587 309.2209 169.1586 14.37738078144665
SL-12 R/B(2)            
1 15772U 85042D   26003.62445902  .00000109  00000+0  70595-4 0  9993
2 15772  71.1067 225.1874 0036978 229.2492 194.9107 14.21959268105147
SL-14 R/B               
1 15945U 85069B   26003.64816260  .00000871  00000+0  95779-4 0  9992
2 15945  82.5270  86.1070 0019942  50.9965 309.3024 14.86354082163171
SL-16 R/B               
1 16182U 85097B   26003.47976808  .00000219  00000+0  13377-3 0  9992
2 16182  71.0031 277.8357 0008005 338.7117 194.4217 14.16587636 77991
SL-14 R/B               
1 16496U 86006B   26003.37245190  .00001196  00000+0  12438-3 0  9995
2 16496  82.5280 321.1969 0077888 128.4612 232.3629 14.86705671139506
COSMOS 1743             
1 16719U 86034A   26003.62906785  .00045111  00000+0  70345-3 0  9992
2 16719  82.5355 141.8336 0005020 167.2604 192.8777 15.53643989170139
